ACS3                    
1 59588U 24077B   24298.58579381  .00021755  00000+0  24005-1 0  9997
2 59588  97.4729 336.9716 0046548 177.7485 182.3885 13.71363103 25107
